IRIDIUM 155             
1 43573U 18061E   22256.76434066  .00000113  00000+0  33435-4 0  9997
2 43573  86.3909 270.2009 0002326  98.4076 261.7384 14.34218638216646
IRIDIUM 154             
1 43574U 18061F   22257.51276909  .00000111  00000+0  32486-4 0  9995
2 43574  86.3914 269.9553 0002010  85.6559 274.4866 14.34218181216803
IRIDIUM 163             
1 43575U 18061G   22256.79604562  .00000110  00000+0  32253-4 0  9996
2 43575  86.3911 270.2128 0002506  84.2274 275.9207 14.34218466216679
IRIDIUM 156             
1 43576U 18061H   22256.77067721  .00000110  00000+0  32191-4 0  9996
2 43576  86.3911 270.2288 0002553  92.1713 267.9776 14.34216722216669
IRIDIUM 164             
1 43577U 18061J   22257.51909898  .00000106  00000+0  30854-4 0  9999
2 43577  86.3913 269.9349 0002140  83.8042 276.3398 14.34219946216811
IRIDIUM 159             
1 43578U 18061K   22256.85947213  .00000107  00000+0  31164-4 0  9995
2 43578  86.3911 270.1768 0002105  86.5024 273.6412 14.34217096216686
IRIDIUM 180             
1 43922U 19002A   22256.57989174  .00000231  00000+0  75600-4 0  9996
2 43922  86.4017 207.1861 0002114  69.3531 290.7891 14.34220652192296
IRIDIUM 176             
1 43923U 19002B   22256.82297095  .00000644  00000+0  98250-4 0  9993
2 43923  86.6152 207.1212 0002376  84.8993 275.2495 14.72247820197339
IRIDIUM 168             
1 43924U 19002C   22257.41077552  .00000235  00000+0  76747-4 0  9997
2 43924  86.4020 206.8779 0002031  79.8320 280.3104 14.34218217192359
IRIDIUM 173             
1 43925U 19002D   22257.11902060  .00000224  00000+0  73100-4 0  9994
2 43925  86.4016 206.9447 0002125  78.2006 281.9428 14.34216557192302
IRIDIUM 169             
1 43926U 19002E   22256.77786978  .00000154  00000+0  43830-4 0  9993
2 43926  86.4207 238.6571 0004810 154.5420 205.6016 14.38607974192910
IRIDIUM 172             
1 43927U 19002F   22256.83359474  .00000235  00000+0  76811-4 0  9993
2 43927  86.4017 207.0675 0002090  77.0517 283.0913 14.34220738192268
IRIDIUM 175             
1 43928U 19002G   22256.61290890  .00000794  00000+0  12199-3 0  9994
2 43928  86.6155 207.0423 0002277  85.1351 275.0126 14.72248145197297
IRIDIUM 171             
1 43929U 19002H   22256.60526454  .00000232  00000+0  75803-4 0  9991
2 43929  86.4026 207.3163 0002014  80.3873 279.7550 14.34219536192222
IRIDIUM 170             
1 43930U 19002J   22256.96510902  .00000839  00000+0  12924-3 0  9990
2 43930  86.6151 207.0673 0002370  89.2516 270.8972 14.72250532197368
IRIDIUM 167             
1 43931U 19002K   22257.36637502  .00000240  00000+0  78767-4 0  9996
2 43931  86.4018 206.8555 0002047  74.6420 285.5002 14.34220753192337
